SL-14 R/B               
1 16792U 86046B   26050.48665405  .00000409  00000+0  44373-4 0  9997
2 16792  82.4797  97.3858 0021591 289.3348  70.5534 14.85571689123700
SL-14 R/B               
1 16882U 86055B   26050.34891449  .00000492  00000+0  53854-4 0  9997
2 16882  82.5230 143.9091 0019724  36.7817  28.5394 14.85623476116644
AJISAI (EGS)            
1 16908U 86061A   26050.49023637 -.00000081  00000+0  11287-3 0  9993
2 16908  50.0084 149.3113 0011234 240.0707 209.0714 12.44515347465730
COSMOS 1812             
1 17295U 87003A   26050.50544921  .00433147  82199-4  72456-3 0  9997
2 17295  82.4739 216.3838 0003757 298.0621  62.0278 16.02863420141553
SL-14 R/B               
1 17567U 87024B   26050.12271424  .00000410  00000+0  43912-4 0  9990
2 17567  82.5273 110.2166 0017284 326.3927  33.6191 14.86113632 85377
COSMOS 1833             
1 17589U 87027A   26050.31341611 -.00000065  00000+0 -89979-5 0  9996
2 17589  70.9231   4.6372 0024849 239.6396 120.2268 14.13057314  7727
SL-16 R/B               
1 17590U 87027B   26050.12857138  .00000260  00000+0  15264-3 0  9992
2 17590  71.0040 315.6082 0004458 176.1397 183.9762 14.17164405 12716
SL-14 R/B               
1 17912U 87038B   26050.17548397  .00000427  00000+0  46783-4 0  9997
2 17912  82.5034 314.2462 0018106 222.6820 137.2990 14.85351118 76487
COSMOS 1844             
1 17973U 87041A   26050.43879249  .00000259  00000+0  15919-3 0  9999
2 17973  70.8982  72.6724 0029092  46.8532 313.5014 14.14550224  1007
SL-14 R/B               
1 18153U 87055B   26050.35774022  .00000540  00000+0  59278-4 0  9999
2 18153  82.5014   6.3044 0022264  75.1784 285.1897 14.85605066 67212
COSMOS 1867             
1 18187U 87060A   26050.27724601 -.00000018  00000+0  30914-4 0  9998
2 18187  65.0125 358.2665 0014227 277.5381  82.4087 14.31499972 17309
SL-14 R/B               
1 18749U 88001B   26050.48647214  .00000483  00000+0  53137-4 0  9992
2 18749  82.5117 212.4795 0016782 301.1603  58.7967 14.85503816 39323
